start=new Date('2021-11-02T00:00:00.000Z').valueOf();
sats=[{"RCS_SIZE":"LARGE","BSTAR":"0.00002322300000","ECCENTRICITY":"0.00014350","MEAN_MOTION_DOT":"0.00000065","ELEMENT_SET_NO":"999","MEAN_MOTION_DDOT":"0.0000000000000","COUNTRY_CODE":"US","ARG_OF_PERICENTER":"72.7181","DECAY_DATE":null,"MEAN_ELEMENT_THEORY":"SGP4","EPHEMERIS_TYPE":"0","APOAPSIS":"548.181","GP_ID":"188695820","EPOCH":"2021-11-01T21:24:56.624256","PERIOD":"95.592","REV_AT_EPOCH":"2424","TLE_LINE2":"2 48646  53.0557  53.9929 0001435  72.7181 287.3965 15.06408478 24246","PERIAPSIS":"546.194","REF_FRAME":"TEME","MEAN_ANOMALY":"287.3965","OBJECT_ID":"2021-044J","TLE_LINE1":"1 48646U 21044J   21305.89232204  .00000065  00000-0  23223-4 0  9997","TIME_SYSTEM":"UTC","SEMIMAJOR_AXIS":"6925.323","CENTER_NAME":"EARTH","LAUNCH_DATE":"2021-05-26","NORAD_CAT_ID":"48646","MEAN_MOTION":"15.06408478","CLASSIFICATION_TYPE":"U","SITE":"AFETR","INCLINATION":"53.0557","RA_OF_ASC_NODE":"53.9929","OBJECT_TYPE":"PAYLOAD","OBJECT_NAME":"STARLINK-2732","FILE":"3196819"},{"MEAN_MOTION_DOT":"-0.00000394","ECCENTRICITY":"0.00010800","BSTAR":"-0.00000755940000","RCS_SIZE":"LARGE","MEAN_MOTION_DDOT":"0.0000000000000","ELEMENT_SET_NO":"999","DECAY_DATE":null,"MEAN_ELEMENT_THEORY":"SGP4","ARG_OF_PERICENTER":"80.1414","COUNTRY_CODE":"US","GP_ID":"188696398","APOAPSIS":"547.988","EPHEMERIS_TYPE":"0","TLE_LINE2":"2 48647  53.0566  54.9116 0001080  80.1414 279.9696 15.06391215 24219","REV_AT_EPOCH":"2421","PERIOD":"95.593","EPOCH":"2021-11-01T16:33:02.246976","LAUNCH_DATE":"2021-05-26","TLE_LINE1":"1 48647U 21044K   21305.68960934 -.00000394  00000-0 -75594-5 0  9999","SEMIMAJOR_AXIS":"6925.375","CENTER_NAME":"EARTH","TIME_SYSTEM":"UTC","OBJECT_ID":"2021-044K","MEAN_ANOMALY":"279.9696","REF_FRAME":"TEME","PERIAPSIS":"546.493","INCLINATION":"53.0566","SITE":"AFETR","CLASSIFICATION_TYPE":"U","MEAN_MOTION":"15.06391215","NORAD_CAT_ID":"48647","FILE":"3196819","OBJECT_NAME":"STARLINK-2691","OBJECT_TYPE":"PAYLOAD","RA_OF_ASC_NODE":"54.9116"},{"INCLINATION":"53.0566","CLASSIFICATION_TYPE":"U","SITE":"AFETR","MEAN_MOTION":"15.06394834","NORAD_CAT_ID":"48648","FILE":"3196819","OBJECT_TYPE":"PAYLOAD","OBJECT_NAME":"STARLINK-2521","RA_OF_ASC_NODE":"54.3155","TLE_LINE2":"2 48648  53.0566  54.3155 0001407  75.9249 284.1896 15.06394834 24230","REV_AT_EPOCH":"2423","PERIOD":"95.592","EPOCH":"2021-11-01T19:42:45.148032","LAUNCH_DATE":"2021-05-26","TLE_LINE1":"1 48648U 21044L   21305.82135588  .00000099  00000-0  25547-4 0  9997","CENTER_NAME":"EARTH","SEMIMAJOR_AXIS":"6925.364","TIME_SYSTEM":"UTC","PERIAPSIS":"546.255","REF_FRAME":"TEME","OBJECT_ID":"2021-044L","MEAN_ANOMALY":"284.1896","ARG_OF_PERICENTER":"75.9249","DECAY_DATE":null,"MEAN_ELEMENT_THEORY":"SGP4","COUNTRY_CODE":"US","GP_ID":"188696051","APOAPSIS":"548.204","EPHEMERIS_TYPE":"0","MEAN_MOTION_DOT":"0.00000099","ECCENTRICITY":"0.00014070","RCS_SIZE":"LARGE","BSTAR":"0.00002554700000","MEAN_MOTION_DDOT":"0.0000000000000","ELEMENT_SET_NO":"999"},{"INCLINATION":"53.0536","CLASSIFICATION_TYPE":"U","SITE":"AFETR","MEAN_MOTION":"15.06400419","NORAD_CAT_ID":"48649","FILE":"3196819","OBJECT_TYPE":"PAYLOAD","OBJECT_NAME":"STARLINK-2673","RA_OF_ASC_NODE":"54.3382","TLE_LINE2":"2 48649  53.0536  54.3382 0001527  81.9716 278.1446 15.06400419 24229","REV_AT_EPOCH":"2422","PERIOD":"95.592","EPOCH":"2021-11-01T19:38:47.503968","LAUNCH_DATE":"2021-05-26","SEMIMAJOR_AXIS":"6925.347","TLE_LINE1":"1 48649U 21044M   21305.81860537  .00000780  00000-0  71241-4 0  9995","CENTER_NAME":"EARTH","TIME_SYSTEM":"UTC","PERIAPSIS":"546.155","REF_FRAME":"TEME","OBJECT_ID":"2021-044M","MEAN_ANOMALY":"278.1446","ARG_OF_PERICENTER":"81.9716","MEAN_ELEMENT_THEORY":"SGP4","DECAY_DATE":null,"COUNTRY_CODE":"US","GP_ID":"188696283","APOAPSIS":"548.270","EPHEMERIS_TYPE":"0","MEAN_MOTION_DOT":"0.00000780","ECCENTRICITY":"0.00015270","RCS_SIZE":"LARGE","BSTAR":"0.00007124100000","MEAN_MOTION_DDOT":"0.0000000000000","ELEMENT_SET_NO":"999"},{"NORAD_CAT_ID":"48650","MEAN_MOTION":"15.06407364","SITE":"AFETR","CLASSIFICATION_TYPE":"U","INCLINATION":"53.0556","RA_OF_ASC_NODE":"54.0480","OBJECT_NAME":"STARLINK-2672","OBJECT_TYPE":"PAYLOAD","FILE":"3196819","EPOCH":"2021-11-01T21:09:02.557440","PERIOD":"95.592","REV_AT_EPOCH":"2423","TLE_LINE2":"2 48650  53.0556  54.0480 0001244  91.8054 268.3078 15.06407364 24239","MEAN_ANOMALY":"268.3078","OBJECT_ID":"2021-044N","PERIAPSIS":"546.329","REF_FRAME":"TEME","TLE_LINE1":"1 48650U 21044N   21305.88127960  .00001354  00000-0  10977-3 0  9996","TIME_SYSTEM":"UTC","SEMIMAJOR_AXIS":"6925.326","CENTER_NAME":"EARTH","LAUNCH_DATE":"2021-05-26","COUNTRY_CODE":"US","DECAY_DATE":null,"MEAN_ELEMENT_THEORY":"SGP4","ARG_OF_PERICENTER":"91.8054","EPHEMERIS_TYPE":"0","APOAPSIS":"548.052","GP_ID":"188696167","BSTAR":"0.00010977000000","RCS_SIZE":"LARGE","ECCENTRICITY":"0.00012440","MEAN_MOTION_DOT":"0.00001354","ELEMENT_SET_NO":"999","MEAN_MOTION_DDOT":"0.0000000000000"},{"NORAD_CAT_ID":"48651","MEAN_MOTION":"15.06389911","SITE":"AFETR","CLASSIFICATION_TYPE":"U","INCLINATION":"53.0550","RA_OF_ASC_NODE":"54.6559","OBJECT_NAME":"STARLINK-2731","OBJECT_TYPE":"PAYLOAD","FILE":"3196819","EPOCH":"2021-11-01T17:52:38.138304","REV_AT_EPOCH":"2421","PERIOD":"95.593","TLE_LINE2":"2 48651  53.0550  54.6559 0001277  91.1749 268.9386 15.06389911 24210","MEAN_ANOMALY":"268.9386","OBJECT_ID":"2021-044P","REF_FRAME":"TEME","PERIAPSIS":"546.360","CENTER_NAME":"EARTH","TLE_LINE1":"1 48651U 21044P   21305.74488586  .00000110  00000-0  26252-4 0  9999","SEMIMAJOR_AXIS":"6925.379","TIME_SYSTEM":"UTC","LAUNCH_DATE":"2021-05-26","COUNTRY_CODE":"US","MEAN_ELEMENT_THEORY":"SGP4","DECAY_DATE":null,"ARG_OF_PERICENTER":"91.1749","EPHEMERIS_TYPE":"0","APOAPSIS":"548.129","GP_ID":"188696514","BSTAR":"0.00002625200000","RCS_SIZE":"LARGE","ECCENTRICITY":"0.00012770","MEAN_MOTION_DOT":"0.00000110","ELEMENT_SET_NO":"999","MEAN_MOTION_DDOT":"0.0000000000000"},{"ELEMENT_SET_NO":"999","MEAN_MOTION_DDOT":"0.0000000000000","BSTAR":"-0.00001160200000","RCS_SIZE":"LARGE","ECCENTRICITY":"0.00013200","MEAN_MOTION_DOT":"-0.00000454","EPHEMERIS_TYPE":"0","APOAPSIS":"548.106","GP_ID":"188695706","COUNTRY_CODE":"US","DECAY_DATE":null,"MEAN_ELEMENT_THEORY":"SGP4","ARG_OF_PERICENTER":"77.8515","OBJECT_ID":"2021-044Q","MEAN_ANOMALY":"282.2622","PERIAPSIS":"546.278","REF_FRAME":"TEME","SEMIMAJOR_AXIS":"6925.327","TLE_LINE1":"1 48652U 21044Q   21305.74119173 -.00000454  00000-0 -11602-4 0  9999","CENTER_NAME":"EARTH","TIME_SYSTEM":"UTC","LAUNCH_DATE":"2021-05-26","EPOCH":"2021-11-01T17:47:18.965472","REV_AT_EPOCH":"2421","PERIOD":"95.592","TLE_LINE2":"2 48652  53.0567  54.6723 0001320  77.8515 282.2622 15.06407144 24214","RA_OF_ASC_NODE":"54.6723","OBJECT_NAME":"STARLINK-2727","OBJECT_TYPE":"PAYLOAD","FILE":"3196819","NORAD_CAT_ID":"48652","MEAN_MOTION":"15.06407144","SITE":"AFETR","CLASSIFICATION_TYPE":"U","INCLINATION":"53.0567"},{"RA_OF_ASC_NODE":"54.3931","OBJECT_TYPE":"PAYLOAD","OBJECT_NAME":"STARLINK-2720","FILE":"3196819","NORAD_CAT_ID":"48653","MEAN_MOTION":"15.06392302","CLASSIFICATION_TYPE":"U","SITE":"AFETR","INCLINATION":"53.0564","PERIAPSIS":"546.386","REF_FRAME":"TEME","MEAN_ANOMALY":"285.0015","OBJECT_ID":"2021-044R","TLE_LINE1":"1 48653U 21044R   21305.80386878  .00000245  00000-0  35365-4 0  9993","SEMIMAJOR_AXIS":"6925.372","CENTER_NAME":"EARTH","TIME_SYSTEM":"UTC","LAUNCH_DATE":"2021-05-26","EPOCH":"2021-11-01T19:17:34.262592","REV_AT_EPOCH":"2422","PERIOD":"95.593","TLE_LINE2":"2 48653  53.0564  54.3931 0001229  75.1110 285.0015 15.06392302 24227","EPHEMERIS_TYPE":"0","APOAPSIS":"548.088","GP_ID":"188695936","COUNTRY_CODE":"US","ARG_OF_PERICENTER":"75.1110","DECAY_DATE":null,"MEAN_ELEMENT_THEORY":"SGP4","ELEMENT_SET_NO":"999","MEAN_MOTION_DDOT":"0.0000000000000","RCS_SIZE":"LARGE","BSTAR":"0.00003536500000","ECCENTRICITY":"0.00012290","MEAN_MOTION_DOT":"0.00000245"},{"ELEMENT_SET_NO":"999","MEAN_MOTION_DDOT":"0.0000000000000","RCS_SIZE":"LARGE","BSTAR":"0.00010471000000","ECCENTRICITY":"0.00013870","MEAN_MOTION_DOT":"0.00001279","EPHEMERIS_TYPE":"0","APOAPSIS":"548.171","GP_ID":"188695821","COUNTRY_CODE":"US","ARG_OF_PERICENTER":"82.5273","MEAN_ELEMENT_THEORY":"SGP4","DECAY_DATE":null,"REF_FRAME":"TEME","PERIAPSIS":"546.250","OBJECT_ID":"2021-044S","MEAN_ANOMALY":"277.5874","SEMIMAJOR_AXIS":"6925.346","TLE_LINE1":"1 48654U 21044S   21305.73382042  .00001279  00000-0  10471-3 0  9993","CENTER_NAME":"EARTH","TIME_SYSTEM":"UTC","LAUNCH_DATE":"2021-05-26","EPOCH":"2021-11-01T17:36:42.084288","REV_AT_EPOCH":"2421","PERIOD":"95.592","TLE_LINE2":"2 48654  53.0576  54.7212 0001387  82.5273 277.5874 15.06400892 24216","RA_OF_ASC_NODE":"54.7212","OBJECT_TYPE":"PAYLOAD","OBJECT_NAME":"STARLINK-2651","FILE":"3196819","NORAD_CAT_ID":"48654","MEAN_MOTION":"15.06400892","CLASSIFICATION_TYPE":"U","SITE":"AFETR","INCLINATION":"53.0576"},{"REV_AT_EPOCH":"2422","PERIOD":"95.593","TLE_LINE2":"2 48655  53.0562  54.4310 0001194  87.0163 273.0962 15.06385418 24228","EPOCH":"2021-11-01T19:06:57.846240","LAUNCH_DATE":"2021-05-26","MEAN_ANOMALY":"273.0962","OBJECT_ID":"2021-044T","PERIAPSIS":"546.431","REF_FRAME":"TEME","TLE_LINE1":"1 48655U 21044T   21305.79650285 -.00001044  00000-0 -51216-4 0  9992","SEMIMAJOR_AXIS":"6925.393","CENTER_NAME":"EARTH","TIME_SYSTEM":"UTC","SITE":"AFETR","CLASSIFICATION_TYPE":"U","INCLINATION":"53.0562","NORAD_CAT_ID":"48655","MEAN_MOTION":"15.06385418","OBJECT_NAME":"STARLINK-2657","OBJECT_TYPE":"PAYLOAD","FILE":"3196819","RA_OF_ASC_NODE":"54.4310","ECCENTRICITY":"0.00011940","MEAN_MOTION_DOT":"-0.00001044","BSTAR":"-0.00005121600000","RCS_SIZE":"LARGE","MEAN_MOTION_DDOT":"0.0000000000000","ELEMENT_SET_NO":"999","DECAY_DATE":null,"MEAN_ELEMENT_THEORY":"SGP4","ARG_OF_PERICENTER":"87.0163","COUNTRY_CODE":"US","APOAPSIS":"548.085","GP_ID":"188696399","EPHEMERIS_TYPE":"0"}];
